[{"OBJECT_NAME":"STARLINK-31152","OBJECT_ID":"2024-005G","EPOCH":"2026-03-09T11:11:59.277984","MEAN_MOTION":15.26736091,"ECCENTRICITY":0.00013467,"INCLINATION":42.9985,"RA_OF_ASC_NODE":220.6599,"ARG_OF_PERICENTER":280.6789,"MEAN_ANOMALY":79.391,"EPHEMERIS_TYPE":0,"CLASSIFICATION_TYPE":"U","NORAD_CAT_ID":58734,"ELEMENT_SET_NO":999,"REV_AT_EPOCH":12041,"BSTAR":-0.0001215847,"MEAN_MOTION_DOT":-3.519e-5,"MEAN_MOTION_DDOT":0},{"OBJECT_NAME":"CZ-4C R\/B","OBJECT_ID":"2021-079B","EPOCH":"2026-03-09T14:04:29.438112","MEAN_MOTION":15.08928015,"ECCENTRICITY":0.0108377,"INCLINATION":98.3883,"RA_OF_ASC_NODE":282.6111,"ARG_OF_PERICENTER":26.1585,"MEAN_ANOMALY":334.506,"EPHEMERIS_TYPE":0,"CLASSIFICATION_TYPE":"U","NORAD_CAT_ID":49123,"ELEMENT_SET_NO":999,"REV_AT_EPOCH":24640,"BSTAR":0.00023549,"MEAN_MOTION_DOT":4.178e-5,"MEAN_MOTION_DDOT":0}]
